{"type": "FeatureCollection", "features": [ {"type": "Feature", "properties": {"norad_id": 39155, "name": "COSMOS 2485 (747)", "group": "glo-ops", "lat": 14.858390581603432, "lon": 87.13993687275271, "alt_km": 19181.18475452881, "timestamp": "2025-12-04T15:47:54.358804+00:00", "meta": {"OBJECT_NAME": "COSMOS 2485 (747)", "OBJECT_ID": "2013-019A", "EPOCH": "2025-12-02T06:58:21.505152", "MEAN_MOTION": 2.13102877, "ECCENTRICITY": 0.00245683, "INCLINATION": 65.3079, "RA_OF_ASC_NODE": 80.2187, "ARG_OF_PERICENTER": 229.0905, "MEAN_ANOMALY": 130.6936, "EPHEMERIS_TYPE": 0, "CLASSIFICATION_TYPE": "U", "NORAD_CAT_ID": 39155, "ELEMENT_SET_NO": 999, "REV_AT_EPOCH": 9808, "BSTAR": 0, "MEAN_MOTION_DOT": -1.8e-07, "MEAN_MOTION_DDOT": 0}, "tle": {"line1": "1 39155U 13019A   25336.29052668 -.00000018  00000+0  00000+0 0  9992", "line2": "2 39155  65.3079  80.2187 0024568 229.0905 130.6936  2.13102877 98087"}}, "geometry": {"type": "Point", "coordinates": [87.13993687275271, 14.858390581603432]}}, {"type": "Feature", "properties": {"norad_id": 39620, "name": "COSMOS 2492 (754)", "group": "glo-ops", "lat": 42.71344295638819, "lon": -14.456481428953422, "alt_km": 19129.484652092633, "timestamp": "2025-12-04T15:47:54.358827+00:00", "meta": {"OBJECT_NAME": "COSMOS 2492 (754)", "OBJECT_ID": "2014-012A", "EPOCH": "2025-12-02T17:14:30.403680", "MEAN_MOTION": 2.13103072, "ECCENTRICITY": 0.00141646, "INCLINATION": 65.4134, "RA_OF_ASC_NODE": 320.6107, "ARG_OF_PERICENTER": 311.0276, "MEAN_ANOMALY": 48.8557, "EPHEMERIS_TYPE": 0, "CLASSIFICATION_TYPE": "U", "NORAD_CAT_ID": 39620, "ELEMENT_SET_NO": 999, "REV_AT_EPOCH": 9105, "BSTAR": 0, "MEAN_MOTION_DOT": -3.6e-07, "MEAN_MOTION_DDOT": 0}, "tle": {"line1": "1 39620U 14012A   25336.71840745 -.00000036  00000+0  00000+0 0  9991", "line2": "2 39620  65.4134 320.6107 0014164 311.0276  48.8557  2.13103072 91051"}}, "geometry": {"type": "Point", "coordinates": [-14.456481428953422, 42.71344295638819]}}, {"type": "Feature", "properties": {"norad_id": 40001, "name": "COSMOS 2500 (755)", "group": "glo-ops", "lat": -64.64436516894675, "lon": -115.43985291339365, "alt_km": 19124.65030809613, "timestamp": "2025-12-04T15:47:54.358853+00:00", "meta": {"OBJECT_NAME": "COSMOS 2500 (755)", "OBJECT_ID": "2014-032A", "EPOCH": "2025-12-01T22:51:13.641408", "MEAN_MOTION": 2.13105853, "ECCENTRICITY": 0.00082978, "INCLINATION": 65.3495, "RA_OF_ASC_NODE": 320.3998, "ARG_OF_PERICENTER": 219.081, "MEAN_ANOMALY": 140.8682, "EPHEMERIS_TYPE": 0, "CLASSIFICATION_TYPE": "U", "NORAD_CAT_ID": 40001, "ELEMENT_SET_NO": 999, "REV_AT_EPOCH": 8925, "BSTAR": 0, "MEAN_MOTION_DOT": -3.1e-07, "MEAN_MOTION_DDOT": 0}, "tle": {"line1": "1 40001U 14032A   25335.95224122 -.00000031  00000+0  00000+0 0  9993", "line2": "2 40001  65.3495 320.3998 0008297 219.0810 140.8682  2.13105853 89251"}}, "geometry": {"type": "Point", "coordinates": [-115.43985291339365, -64.64436516894675]}}, {"type": "Feature", "properties": {"norad_id": 40315, "name": "COSMOS 2501 (702K)", "group": "glo-ops", "lat": 60.59086813109131, "lon": -101.18040871588332, "alt_km": 19155.196009753003, "timestamp": "2025-12-04T15:47:54.358874+00:00", "meta": {"OBJECT_NAME": "COSMOS 2501 (702K)", "OBJECT_ID": "2014-075A", "EPOCH": "2025-11-30T19:17:52.497312", "MEAN_MOTION": 2.13101305, "ECCENTRICITY": 0.00201676, "INCLINATION": 63.6137, "RA_OF_ASC_NODE": 197.2386, "ARG_OF_PERICENTER": 204.7979, "MEAN_ANOMALY": 155.1955, "EPHEMERIS_TYPE": 0, "CLASSIFICATION_TYPE": "U", "NORAD_CAT_ID": 40315, "ELEMENT_SET_NO": 999, "REV_AT_EPOCH": 8562, "BSTAR": 0, "MEAN_MOTION_DOT": 1e-06, "MEAN_MOTION_DDOT": 0}, "tle": {"line1": "1 40315U 14075A   25334.80407983  .00000100  00000+0  00000+0 0  9995", "line2": "2 40315  63.6137 197.2386 0020167 204.7979 155.1955  2.13101305 85629"}}, "geometry": {"type": "Point", "coordinates": [-101.18040871588332, 60.59086813109131]}}, {"type": "Feature", "properties": {"norad_id": 41330, "name": "COSMOS 2514 (751)", "group": "glo-ops", "lat": 65.10177274170242, "lon": 47.17170766662411, "alt_km": 19143.715648926744, "timestamp": "2025-12-04T15:47:54.358894+00:00", "meta": {"OBJECT_NAME": "COSMOS 2514 (751)", "OBJECT_ID": "2016-008A", "EPOCH": "2025-12-03T14:29:09.873600", "MEAN_MOTION": 2.1310246, "ECCENTRICITY": 0.00124497, "INCLINATION": 65.139, "RA_OF_ASC_NODE": 319.717, "ARG_OF_PERICENTER": 219.8924, "MEAN_ANOMALY": 140.017, "EPHEMERIS_TYPE": 0, "CLASSIFICATION_TYPE": "U", "NORAD_CAT_ID": 41330, "ELEMENT_SET_NO": 999, "REV_AT_EPOCH": 7645, "BSTAR": 0, "MEAN_MOTION_DOT": -4.2e-07, "MEAN_MOTION_DDOT": 0}, "tle": {"line1": "1 41330U 16008A   25337.60358650 -.00000042  00000+0  00000+0 0  9994", "line2": "2 41330  65.1390 319.7170 0012449 219.8924 140.0170  2.13102460 76454"}}, "geometry": {"type": "Point", "coordinates": [47.17170766662411, 65.10177274170242]}}, {"type": "Feature", "properties": {"norad_id": 42939, "name": "COSMOS 2522 (752)", "group": "glo-ops", "lat": -29.365507930647794, "lon": 34.38857171490698, "alt_km": 19117.64296157645, "timestamp": "2025-12-04T15:47:54.358914+00:00", "meta": {"OBJECT_NAME": "COSMOS 2522 (752)", "OBJECT_ID": "2017-055A", "EPOCH": "2025-12-02T23:20:47.282208", "MEAN_MOTION": 2.1310185, "ECCENTRICITY": 0.00065327, "INCLINATION": 64.0758, "RA_OF_ASC_NODE": 198.5618, "ARG_OF_PERICENTER": 226.0683, "MEAN_ANOMALY": 133.9743, "EPHEMERIS_TYPE": 0, "CLASSIFICATION_TYPE": "U", "NORAD_CAT_ID": 42939, "ELEMENT_SET_NO": 999, "REV_AT_EPOCH": 6379, "BSTAR": 0, "MEAN_MOTION_DOT": 1.07e-06, "MEAN_MOTION_DDOT": 0}, "tle": {"line1": "1 42939U 17055A   25336.97276947  .00000107  00000+0  00000+0 0  9991", "line2": "2 42939  64.0758 198.5618 0006532 226.0683 133.9743  2.13101850 63796"}}, "geometry": {"type": "Point", "coordinates": [34.38857171490698, -29.365507930647794]}}, {"type": "Feature", "properties": {"norad_id": 43508, "name": "COSMOS 2527 (756)", "group": "glo-ops", "lat": -54.31868039470489, "lon": -60.18010263151591, "alt_km": 19115.127774389544, "timestamp": "2025-12-04T15:47:54.358933+00:00", "meta": {"OBJECT_NAME": "COSMOS 2527 (756)", "OBJECT_ID": "2018-053A", "EPOCH": "2025-12-03T09:39:54.898272", "MEAN_MOTION": 2.13102029, "ECCENTRICITY": 0.00086478, "INCLINATION": 65.4675, "RA_OF_ASC_NODE": 80.4438, "ARG_OF_PERICENTER": 224.1252, "MEAN_ANOMALY": 135.8021, "EPHEMERIS_TYPE": 0, "CLASSIFICATION_TYPE": "U", "NORAD_CAT_ID": 43508, "ELEMENT_SET_NO": 999, "REV_AT_EPOCH": 5810, "BSTAR": 0, "MEAN_MOTION_DOT": -2.2e-07, "MEAN_MOTION_DDOT": 0}, "tle": {"line1": "1 43508U 18053A   25337.40271873 -.00000022  00000+0  00000+0 0  9992", "line2": "2 43508  65.4675  80.4438 0008647 224.1252 135.8021  2.13102029 58109"}}, "geometry": {"type": "Point", "coordinates": [-60.18010263151591, -54.31868039470489]}}, {"type": "Feature", "properties": {"norad_id": 43687, "name": "COSMOS 2529 (757)", "group": "glo-ops", "lat": 10.527659605071204, "lon": 14.029151903366698, "alt_km": 19127.780899767404, "timestamp": "2025-12-04T15:47:54.358953+00:00", "meta": {"OBJECT_NAME": "COSMOS 2529 (757)", "OBJECT_ID": "2018-086A", "EPOCH": "2025-12-03T00:44:36.468960", "MEAN_MOTION": 2.13101888, "ECCENTRICITY": 0.00072932, "INCLINATION": 64.2917, "RA_OF_ASC_NODE": 199.2166, "ARG_OF_PERICENTER": 254.4618, "MEAN_ANOMALY": 105.5545, "EPHEMERIS_TYPE": 0, "CLASSIFICATION_TYPE": "U", "NORAD_CAT_ID": 43687, "ELEMENT_SET_NO": 999, "REV_AT_EPOCH": 5510, "BSTAR": 0, "MEAN_MOTION_DOT": 1.06e-06, "MEAN_MOTION_DDOT": 0}, "tle": {"line1": "1 43687U 18086A   25337.03097765  .00000106  00000+0  00000+0 0  9993", "line2": "2 43687  64.2917 199.2166 0007293 254.4618 105.5545  2.13101888 55102"}}, "geometry": {"type": "Point", "coordinates": [14.029151903366698, 10.527659605071204]}}, {"type": "Feature", "properties": {"norad_id": 44299, "name": "COSMOS 2534 (758)", "group": "glo-ops", "lat": -49.27750024861192, "lon": 165.27171745432426, "alt_km": 19113.702168086984, "timestamp": "2025-12-04T15:47:54.358973+00:00", "meta": {"OBJECT_NAME": "COSMOS 2534 (758)", "OBJECT_ID": "2019-030A", "EPOCH": "2025-12-01T03:07:57.438624", "MEAN_MOTION": 2.1310195, "ECCENTRICITY": 0.00091167, "INCLINATION": 64.3652, "RA_OF_ASC_NODE": 199.2842, "ARG_OF_PERICENTER": 283.4428, "MEAN_ANOMALY": 193.0266, "EPHEMERIS_TYPE": 0, "CLASSIFICATION_TYPE": "U", "NORAD_CAT_ID": 44299, "ELEMENT_SET_NO": 999, "REV_AT_EPOCH": 5070, "BSTAR": 0, "MEAN_MOTION_DOT": 9.9e-07, "MEAN_MOTION_DDOT": 0}, "tle": {"line1": "1 44299U 19030A   25335.13052591  .00000099  00000+0  00000+0 0  9991", "line2": "2 44299  64.3652 199.2842 0009116 283.4428 193.0266  2.13101950 50700"}}, "geometry": {"type": "Point", "coordinates": [165.27171745432426, -49.27750024861192]}}, {"type": "Feature", "properties": {"norad_id": 44850, "name": "COSMOS 2544 (759)", "group": "glo-ops", "lat": -61.136695863767685, "lon": 24.370721543868726, "alt_km": 19108.370614838124, "timestamp": "2025-12-04T15:47:54.358993+00:00", "meta": {"OBJECT_NAME": "COSMOS 2544 (759)", "OBJECT_ID": "2019-088A", "EPOCH": "2025-12-03T19:35:48.045120", "MEAN_MOTION": 2.13101769, "ECCENTRICITY": 0.00137151, "INCLINATION": 65.4552, "RA_OF_ASC_NODE": 80.257, "ARG_OF_PERICENTER": 248.9953, "MEAN_ANOMALY": 110.8552, "EPHEMERIS_TYPE": 0, "CLASSIFICATION_TYPE": "U", "NORAD_CAT_ID": 44850, "ELEMENT_SET_NO": 999, "REV_AT_EPOCH": 4655, "BSTAR": 0, "MEAN_MOTION_DOT": -2.3e-07, "MEAN_MOTION_DDOT": 0}, "tle": {"line1": "1 44850U 19088A   25337.81652830 -.00000023  00000+0  00000+0 0  9994", "line2": "2 44850  65.4552  80.2570 0013715 248.9953 110.8552  2.13101769 46551"}}, "geometry": {"type": "Point", "coordinates": [24.370721543868726, -61.136695863767685]}}]}